OBJECT_NAME,OBJECT_ID,EPOCH,MEAN_MOTION,ECCENTRICITY,INCLINATION,RA_OF_ASC_NODE,ARG_OF_PERICENTER,MEAN_ANOMALY,EPHEMERIS_TYPE,CLASSIFICATION_TYPE,NORAD_CAT_ID,ELEMENT_SET_NO,REV_AT_EPOCH,BSTAR,MEAN_MOTION_DOT,MEAN_MOTION_DDOT
ONEWEB-0068,2020-020Y,2026-06-28T14:20:54.824064,13.11418277,.00016598,87.8888,18.7927,83.9590,276.1727,0,U,45446,999,30409,-.11129488E-3,-.27E-6,0
ONEWEB-0046,2020-020Z,2026-06-28T14:08:53.619936,13.11418078,.00018745,87.8878,18.7994,79.3143,280.8196,0,U,45447,999,30410,-.98687843E-3,-.337E-5,0
ONEWEB-0063,2020-020AA,2026-06-28T13:00:44.893728,13.11415657,.00021003,87.8890,18.8085,83.1178,277.0189,0,U,45448,999,30418,.15253882E-2,.553E-5,0
ONEWEB-0019,2020-020AB,2026-06-28T13:56:29.142240,13.11417409,.00018213,87.8881,18.7865,92.7260,267.4076,0,U,45449,999,30403,-.14455846E-2,-.5E-5,0
ONEWEB-0094,2020-020AC,2026-06-28T12:25:06.270816,13.17648433,.00016637,87.9143,3.5956,92.7413,267.3909,0,U,45450,999,30780,.9223653E-4,.49E-6,0
ONEWEB-0087,2020-020AD,2026-06-28T15:04:51.720960,13.11415232,.00015418,87.8898,18.7663,83.5870,276.5433,0,U,45451,999,30408,.13368053E-2,.486E-5,0
ONEWEB-0082,2020-020AE,2026-06-28T14:59:59.141184,13.11415862,.00015886,87.8888,18.7826,73.2057,286.9245,0,U,45452,999,30417,.15852443E-2,.575E-5,0
ONEWEB-0050,2020-020AF,2026-06-28T14:58:05.737728,14.90421996,.00011904,88.9291,231.6579,347.6898,12.4302,0,U,45453,999,34208,.18774869E-3,.1849E-4,0
ONEWEB-0034,2020-020AG,2026-06-28T14:04:12.923616,13.11417328,.00018149,87.8887,18.7999,86.8624,273.2712,0,U,45454,999,30408,-.13881464E-2,-.479E-5,0
ONEWEB-0060,2020-020AH,2026-06-28T14:49:11.885952,13.11415827,.00008494,87.8882,18.7906,77.4673,282.6550,0,U,45455,999,30404,.17466493E-2,.632E-5,0
ONEWEB-0086,2020-020AJ,2026-06-28T14:18:28.300896,13.11418629,.00011995,87.8890,18.7912,106.8199,253.3061,0,U,45456,999,30410,-.49338199E-3,-.162E-5,0
ONEWEB-0088,2020-020AK,2026-06-28T13:46:54.482016,13.11415358,.00020491,87.8895,18.7691,77.2752,282.8605,0,U,45457,999,30403,-.95763606E-3,-.327E-5,0
ONEWEB-0102,2020-100A,2026-06-28T11:50:20.979168,13.12442384,.00017618,87.8946,348.4256,102.5044,257.6282,0,U,47258,999,26621,-.11369199E-2,-.396E-5,0
ONEWEB-0109,2020-100B,2026-06-28T12:02:32.886528,13.12443472,.00019476,87.8954,348.4087,97.1253,263.0097,0,U,47259,999,26604,-.7860378E-3,-.27E-5,0
ONEWEB-0110,2020-100C,2026-06-28T10:51:49.452480,13.12438097,.00015269,87.8955,348.4027,97.8326,262.2976,0,U,47260,999,26620,.41624106E-2,.151E-4,0
ONEWEB-0111,2020-100D,2026-06-28T11:35:42.991008,13.12441580,.00017221,87.8953,348.4149,91.4874,268.6452,0,U,47261,999,26604,-.50040346E-3,-.167E-5,0
ONEWEB-0114,2020-100E,2026-06-28T12:19:37.405632,13.12447282,.000199,87.8958,348.4069,96.9211,263.2144,0,U,47262,999,26600,-.1677861E-3,-.48E-6,0
ONEWEB-0117,2020-100F,2026-06-28T12:07:24.917664,13.12443253,.00018125,87.8952,348.3992,94.1523,265.9813,0,U,47263,999,26601,-.11317841E-2,-.394E-5,0
ONEWEB-0118,2020-100G,2026-06-28T12:56:13.190784,13.12442999,.00020976,87.8953,348.3950,89.0646,271.0723,0,U,47264,999,26621,.11933389E-2,.442E-5,0
ONEWEB-0119,2020-100H,2026-06-28T11:43:01.477056,13.12441097,.00018464,87.8942,348.4206,93.3540,266.7799,0,U,47265,999,26618,-.8279392E-3,-.285E-5,0
ONEWEB-0120,2020-100J,2026-06-28T12:17:22.299360,13.12443626,.00019605,87.8945,348.4175,97.1273,263.0079,0,U,47266,999,26621,-.90157322E-3,-.312E-5,0
ONEWEB-0121,2020-100K,2026-06-28T12:00:05.528736,13.12441393,.00015515,87.8953,348.4069,87.5203,272.6103,0,U,47267,999,26612,-.11152153E-2,-.388E-5,0
ONEWEB-0122,2020-100L,2026-06-28T11:51:34.161696,13.12443785,.00018465,87.8955,348.4127,98.4997,261.6341,0,U,47268,999,26603,-.9497665E-3,-.329E-5,0
ONEWEB-0123,2020-100M,2026-06-28T11:45:27.504288,13.12441213,.00019138,87.8943,348.4193,91.1912,268.9436,0,U,47269,999,26617,-.10098401E-2,-.351E-5,0
ONEWEB-0124,2020-100N,2026-06-28T11:30:49.715712,13.12439784,.00017392,87.8941,348.4243,90.8190,269.3138,0,U,47270,999,26605,-.25756246E-3,-.8E-6,0
ONEWEB-0125,2020-100P,2026-06-28T12:48:54.294336,13.12442157,.00017979,87.8954,348.3984,82.5118,277.6215,0,U,47271,999,26612,.12136883E-2,.449E-5,0
ONEWEB-0126,2020-100Q,2026-06-28T11:28:36.241536,13.12442306,.00019268,87.8947,348.4242,95.0645,265.0704,0,U,47272,999,26618,.29800155E-4,.23E-6,0
ONEWEB-0127,2020-100R,2026-06-28T12:29:23.314272,13.12443408,.00019352,87.8942,348.4142,96.1166,264.0183,0,U,47273,999,26621,.45187058E-3,.175E-5,0
ONEWEB-0128,2020-100S,2026-06-28T11:11:19.308480,13.12441540,.00015416,87.8943,348.4387,98.2552,261.8751,0,U,47274,999,26622,.11783768E-2,.437E-5,0
ONEWEB-0129,2020-100T,2026-06-28T12:31:49.180800,13.12445166,.00028021,87.8953,348.4026,107.7880,252.3555,0,U,47275,999,26616,.76258508E-3,.287E-5,0
