ONEWEB-0068             
1 45446U 20020Y   26179.59785676 -.00000027  00000+0 -11129-3 0  9992
2 45446  87.8888  18.7927 0001659  83.9590 276.1727 13.11418277304094
ONEWEB-0046             
1 45447U 20020Z   26179.58950949 -.00000337  00000+0 -98688-3 0  9998
2 45447  87.8878  18.7994 0001874  79.3143 280.8196 13.11418078304103
ONEWEB-0063             
1 45448U 20020AA  26179.54218627  .00000553  00000+0  15254-2 0  9990
2 45448  87.8890  18.8085 0002100  83.1178 277.0189 13.11415657304182
ONEWEB-0019             
1 45449U 20020AB  26179.58089285 -.00000500  00000+0 -14456-2 0  9998
2 45449  87.8881  18.7865 0001821  92.7260 267.4076 13.11417409304034
ONEWEB-0094             
1 45450U 20020AC  26179.51743369  .00000049  00000+0  92237-4 0  9994
2 45450  87.9143   3.5956 0001663  92.7413 267.3909 13.17648433307806
ONEWEB-0087             
1 45451U 20020AD  26179.62837640  .00000486  00000+0  13368-2 0  9994
2 45451  87.8898  18.7663 0001541  83.5870 276.5433 13.11415232304080
ONEWEB-0082             
1 45452U 20020AE  26179.62499006  .00000575  00000+0  15852-2 0  9994
2 45452  87.8888  18.7826 0001588  73.2057 286.9245 13.11415862304170
ONEWEB-0050             
1 45453U 20020AF  26179.62367752  .00001849  00000+0  18775-3 0  9990
2 45453  88.9291 231.6579 0001190 347.6898  12.4302 14.90421996342083
ONEWEB-0034             
1 45454U 20020AG  26179.58626069 -.00000479  00000+0 -13881-2 0  9997
2 45454  87.8887  18.7999 0001814  86.8624 273.2712 13.11417328304081
ONEWEB-0060             
1 45455U 20020AH  26179.61749868  .00000632  00000+0  17466-2 0  9997
2 45455  87.8882  18.7906 0000849  77.4673 282.6550 13.11415827304044
ONEWEB-0086             
1 45456U 20020AJ  26179.59616089 -.00000162  00000+0 -49338-3 0  9997
2 45456  87.8890  18.7912 0001199 106.8199 253.3061 13.11418629304102
ONEWEB-0088             
1 45457U 20020AK  26179.57424169 -.00000327  00000+0 -95764-3 0  9999
2 45457  87.8895  18.7691 0002049  77.2752 282.8605 13.11415358304032
ONEWEB-0102             
1 47258U 20100A   26179.49329837 -.00000396  00000+0 -11369-2 0  9990
2 47258  87.8946 348.4256 0001761 102.5044 257.6282 13.12442384266214
ONEWEB-0109             
1 47259U 20100B   26179.50176952 -.00000270  00000+0 -78604-3 0  9998
2 47259  87.8954 348.4087 0001947  97.1253 263.0097 13.12443472266048
ONEWEB-0110             
1 47260U 20100C   26179.45265570  .00001510  00000+0  41624-2 0  9996
2 47260  87.8955 348.4027 0001526  97.8326 262.2976 13.12438097266208
ONEWEB-0111             
1 47261U 20100D   26179.48313647 -.00000167  00000+0 -50040-3 0  9991
2 47261  87.8953 348.4149 0001722  91.4874 268.6452 13.12441580266040
ONEWEB-0114             
1 47262U 20100E   26179.51362738 -.00000048  00000+0 -16779-3 0  9990
2 47262  87.8958 348.4069 0001990  96.9211 263.2144 13.12447282266009
ONEWEB-0117             
1 47263U 20100F   26179.50514951 -.00000394  00000+0 -11318-2 0  9993
2 47263  87.8952 348.3992 0001812  94.1523 265.9813 13.12443253266014
ONEWEB-0118             
1 47264U 20100G   26179.53904156  .00000442  00000+0  11933-2 0  9992
2 47264  87.8953 348.3950 0002097  89.0646 271.0723 13.12442999266211
ONEWEB-0119             
1 47265U 20100H   26179.48821154 -.00000285  00000+0 -82794-3 0  9994
2 47265  87.8942 348.4206 0001846  93.3540 266.7799 13.12441097266185
ONEWEB-0120             
1 47266U 20100J   26179.51206365 -.00000312  00000+0 -90157-3 0  9993
2 47266  87.8945 348.4175 0001960  97.1273 263.0079 13.12443626266211
ONEWEB-0121             
1 47267U 20100K   26179.50006399 -.00000388  00000+0 -11152-2 0  9998
2 47267  87.8953 348.4069 0001551  87.5203 272.6103 13.12441393266128
ONEWEB-0122             
1 47268U 20100L   26179.49414539 -.00000329  00000+0 -94977-3 0  9998
2 47268  87.8955 348.4127 0001846  98.4997 261.6341 13.12443785266033
ONEWEB-0123             
1 47269U 20100M   26179.48990167 -.00000351  00000+0 -10098-2 0  9990
2 47269  87.8943 348.4193 0001913  91.1912 268.9436 13.12441213266170
ONEWEB-0124             
1 47270U 20100N   26179.47974208 -.00000080  00000+0 -25756-3 0  9996
2 47270  87.8941 348.4243 0001739  90.8190 269.3138 13.12439784266057
ONEWEB-0125             
1 47271U 20100P   26179.53396174  .00000449  00000+0  12137-2 0  9999
2 47271  87.8954 348.3984 0001797  82.5118 277.6215 13.12442157266129
ONEWEB-0126             
1 47272U 20100Q   26179.47819724  .00000023  00000+0  29800-4 0  9999
2 47272  87.8947 348.4242 0001926  95.0645 265.0704 13.12442306266184
ONEWEB-0127             
1 47273U 20100R   26179.52040873  .00000175  00000+0  45187-3 0  9990
2 47273  87.8942 348.4142 0001935  96.1166 264.0183 13.12443408266217
ONEWEB-0128             
1 47274U 20100S   26179.46619570  .00000437  00000+0  11784-2 0  9996
2 47274  87.8943 348.4387 0001541  98.2552 261.8751 13.12441540266227
ONEWEB-0129             
1 47275U 20100T   26179.52209700  .00000287  00000+0  76259-3 0  9996
2 47275  87.8953 348.4026 0002802 107.7880 252.3555 13.12445166266168
